COSMOS 2251 DEB         
1 37975U 93036BQA 26039.19051063  .00034176  00000+0  42950-2 0  9999
2 37975  73.9998 211.0646 0085951 187.2600 172.7340 14.79329439705940
COSMOS 2251 DEB         
1 37985U 93036BQL 26061.49147013  .00000138  00000+0  56909-4 0  9991
2 37985  74.0243 119.3586 0022346 227.9067 132.0186 14.35511115660614
COSMOS 2251 DEB         
1 37988U 93036BQP 26064.41317880  .00008692  00000+0  14057-2 0  9999
2 37988  74.0604 224.0982 0063794 241.9927 117.4781 14.70076650246106
COSMOS 2251 DEB         
1 37993U 93036BQU 26062.22234091  .00008451  00000+0  17195-2 0  9993
2 37993  74.0242  13.0752 0018320  83.7755 276.5497 14.61086862664928
COSMOS 2251 DEB         
1 37994U 93036BQV 26065.59109858  .00001084  00000+0  35274-3 0  9993
2 37994  74.0350 120.8274 0023084 188.2373 171.8407 14.39832843782714
COSMOS 2251 DEB         
1 37998U 93036BQZ 26065.40358439  .00002218  00000+0  63040-3 0  9990
2 37998  74.0320  79.0837 0018458 142.0500 218.1963 14.45863399654968
COSMOS 2251 DEB         
1 38001U 93036BRC 26064.71515112  .00006779  00000+0  86791-3 0  9996
2 38001  74.0027 328.6192 0062069  98.4251 292.5501 14.80140024759354
COSMOS 2251 DEB         
1 38054U 93036BRL 26065.62817856  .00002496  00000+0  21372-2 0  9990
2 38054  73.9516 128.4853 0348110  90.0376  59.5248 13.62942559683226
COSMOS 2251 DEB         
1 38055U 93036BRM 26064.91824726  .00006271  00000+0  84074-3 0  9990
2 38055  74.0089  43.2542 0063623 153.3398 237.1390 14.78170388619113
COSMOS 2251 DEB         
1 38060U 93036BRS 26061.19379288  .00002730  00000+0  50933-3 0  9994
2 38060  74.0431 142.7485 0059960 231.1694 128.4114 14.64353057731273
COSMOS 2251 DEB         
1 38062U 93036BRU 26052.59010594  .00023247  00000+0  19091-2 0  9997
2 38062  74.0061 146.9269 0017259 277.3195 147.2685 14.99001579640901
COSMOS 2251 DEB         
1 38064U 93036BRW 26064.16213471  .00004250  00000+0  93821-3 0  9991
2 38064  74.0244 327.5606 0044952  66.3025 294.2846 14.57002777730655
COSMOS 2251 DEB         
1 38067U 93036BRZ 26064.46447998  .00002003  00000+0  39585-3 0  9991
2 38067  74.0163 116.1304 0072197 244.4285 176.5020 14.61451796637649
COSMOS 2251 DEB         
1 38068U 93036BSA 26062.67617194  .00000937  00000+0  32931-3 0  9992
2 38068  74.0223 159.5074 0026913 233.2947 126.5734 14.36145559678087
COSMOS 2251 DEB         
1 38197U 93036BSM 26064.76750281  .00029983  00000+0  37052-2 0  9992
2 38197  73.9376 193.5346 0116302  49.2659 311.8542 14.77934954869802
COSMOS 2251 DEB         
1 38199U 93036BSP 26065.25470373  .00000719  00000+0  57701-3 0  9990
2 38199  73.9540 284.9469 0368743 195.1801 163.8012 13.64943327621617
