[{"OBJECT_NAME":"COSMOS 2251 DEB","OBJECT_ID":"1993-036BQA","EPOCH":"2026-02-08T04:34:20.118432","MEAN_MOTION":14.79329439,"ECCENTRICITY":0.00859513,"INCLINATION":73.9998,"RA_OF_ASC_NODE":211.0646,"ARG_OF_PERICENTER":187.26,"MEAN_ANOMALY":172.734,"EPHEMERIS_TYPE":0,"CLASSIFICATION_TYPE":"U","NORAD_CAT_ID":37975,"ELEMENT_SET_NO":999,"REV_AT_EPOCH":70594,"BSTAR":0.0042950145,"MEAN_MOTION_DOT":0.00034176,"MEAN_MOTION_DDOT":0},{"OBJECT_NAME":"COSMOS 2251 DEB","OBJECT_ID":"1993-036BQL","EPOCH":"2026-03-02T11:47:43.019232","MEAN_MOTION":14.35511115,"ECCENTRICITY":0.00223466,"INCLINATION":74.0243,"RA_OF_ASC_NODE":119.3586,"ARG_OF_PERICENTER":227.9067,"MEAN_ANOMALY":132.0186,"EPHEMERIS_TYPE":0,"CLASSIFICATION_TYPE":"U","NORAD_CAT_ID":37985,"ELEMENT_SET_NO":999,"REV_AT_EPOCH":66061,"BSTAR":5.6909175e-5,"MEAN_MOTION_DOT":1.38e-6,"MEAN_MOTION_DDOT":0},{"OBJECT_NAME":"COSMOS 2251 DEB","OBJECT_ID":"1993-036BQP","EPOCH":"2026-03-05T09:54:58.648320","MEAN_MOTION":14.7007665,"ECCENTRICITY":0.0063794,"INCLINATION":74.0604,"RA_OF_ASC_NODE":224.0982,"ARG_OF_PERICENTER":241.9927,"MEAN_ANOMALY":117.4781,"EPHEMERIS_TYPE":0,"CLASSIFICATION_TYPE":"U","NORAD_CAT_ID":37988,"ELEMENT_SET_NO":999,"REV_AT_EPOCH":24610,"BSTAR":0.0014057,"MEAN_MOTION_DOT":8.692e-5,"MEAN_MOTION_DDOT":0},{"OBJECT_NAME":"COSMOS 2251 DEB","OBJECT_ID":"1993-036BQU","EPOCH":"2026-03-03T05:20:10.254624","MEAN_MOTION":14.61086862,"ECCENTRICITY":0.001832,"INCLINATION":74.0242,"RA_OF_ASC_NODE":13.0752,"ARG_OF_PERICENTER":83.7755,"MEAN_ANOMALY":276.5497,"EPHEMERIS_TYPE":0,"CLASSIFICATION_TYPE":"U","NORAD_CAT_ID":37993,"ELEMENT_SET_NO":999,"REV_AT_EPOCH":66492,"BSTAR":0.001719464,"MEAN_MOTION_DOT":8.451e-5,"MEAN_MOTION_DDOT":0},{"OBJECT_NAME":"COSMOS 2251 DEB","OBJECT_ID":"1993-036BQV","EPOCH":"2026-03-06T14:11:10.917312","MEAN_MOTION":14.39832843,"ECCENTRICITY":0.00230848,"INCLINATION":74.035,"RA_OF_ASC_NODE":120.8274,"ARG_OF_PERICENTER":188.2373,"MEAN_ANOMALY":171.8407,"EPHEMERIS_TYPE":0,"CLASSIFICATION_TYPE":"U","NORAD_CAT_ID":37994,"ELEMENT_SET_NO":999,"REV_AT_EPOCH":78271,"BSTAR":0.00035273856,"MEAN_MOTION_DOT":1.084e-5,"MEAN_MOTION_DDOT":0},{"OBJECT_NAME":"COSMOS 2251 DEB","OBJECT_ID":"1993-036BQZ","EPOCH":"2026-03-06T09:41:09.691296","MEAN_MOTION":14.45863399,"ECCENTRICITY":0.00184589,"INCLINATION":74.032,"RA_OF_ASC_NODE":79.0837,"ARG_OF_PERICENTER":142.05,"MEAN_ANOMALY":218.1963,"EPHEMERIS_TYPE":0,"CLASSIFICATION_TYPE":"U","NORAD_CAT_ID":37998,"ELEMENT_SET_NO":999,"REV_AT_EPOCH":65496,"BSTAR":0.00063040112,"MEAN_MOTION_DOT":2.218e-5,"MEAN_MOTION_DDOT":0},{"OBJECT_NAME":"COSMOS 2251 DEB","OBJECT_ID":"1993-036BRC","EPOCH":"2026-03-05T17:09:49.056768","MEAN_MOTION":14.80140024,"ECCENTRICITY":0.00620692,"INCLINATION":74.0027,"RA_OF_ASC_NODE":328.6192,"ARG_OF_PERICENTER":98.4251,"MEAN_ANOMALY":292.5501,"EPHEMERIS_TYPE":0,"CLASSIFICATION_TYPE":"U","NORAD_CAT_ID":38001,"ELEMENT_SET_NO":999,"REV_AT_EPOCH":75935,"BSTAR":0.0008679051,"MEAN_MOTION_DOT":6.779e-5,"MEAN_MOTION_DDOT":0},{"OBJECT_NAME":"COSMOS 2251 DEB","OBJECT_ID":"1993-036BRL","EPOCH":"2026-03-06T15:04:34.627584","MEAN_MOTION":13.62942559,"ECCENTRICITY":0.03481107,"INCLINATION":73.9516,"RA_OF_ASC_NODE":128.4853,"ARG_OF_PERICENTER":90.0376,"MEAN_ANOMALY":59.5248,"EPHEMERIS_TYPE":0,"CLASSIFICATION_TYPE":"U","NORAD_CAT_ID":38054,"ELEMENT_SET_NO":999,"REV_AT_EPOCH":68322,"BSTAR":0.0021372255,"MEAN_MOTION_DOT":2.496e-5,"MEAN_MOTION_DDOT":0},{"OBJECT_NAME":"COSMOS 2251 DEB","OBJECT_ID":"1993-036BRM","EPOCH":"2026-03-05T22:02:16.563264","MEAN_MOTION":14.78170388,"ECCENTRICITY":0.00636235,"INCLINATION":74.0089,"RA_OF_ASC_NODE":43.2542,"ARG_OF_PERICENTER":153.3398,"MEAN_ANOMALY":237.139,"EPHEMERIS_TYPE":0,"CLASSIFICATION_TYPE":"U","NORAD_CAT_ID":38055,"ELEMENT_SET_NO":999,"REV_AT_EPOCH":61911,"BSTAR":0.00084074153,"MEAN_MOTION_DOT":6.271e-5,"MEAN_MOTION_DDOT":0},{"OBJECT_NAME":"COSMOS 2251 DEB","OBJECT_ID":"1993-036BRS","EPOCH":"2026-03-02T04:39:03.704832","MEAN_MOTION":14.64353057,"ECCENTRICITY":0.00599606,"INCLINATION":74.0431,"RA_OF_ASC_NODE":142.7485,"ARG_OF_PERICENTER":231.1694,"MEAN_ANOMALY":128.4114,"EPHEMERIS_TYPE":0,"CLASSIFICATION_TYPE":"U","NORAD_CAT_ID":38060,"ELEMENT_SET_NO":999,"REV_AT_EPOCH":73127,"BSTAR":0.00050932588,"MEAN_MOTION_DOT":2.73e-5,"MEAN_MOTION_DDOT":0},{"OBJECT_NAME":"COSMOS 2251 DEB","OBJECT_ID":"1993-036BRU","EPOCH":"2026-02-21T14:09:45.153216","MEAN_MOTION":14.99001579,"ECCENTRICITY":0.0017259,"INCLINATION":74.0061,"RA_OF_ASC_NODE":146.9269,"ARG_OF_PERICENTER":277.3195,"MEAN_ANOMALY":147.2685,"EPHEMERIS_TYPE":0,"CLASSIFICATION_TYPE":"U","NORAD_CAT_ID":38062,"ELEMENT_SET_NO":999,"REV_AT_EPOCH":64090,"BSTAR":0.0019091,"MEAN_MOTION_DOT":0.00023247,"MEAN_MOTION_DDOT":0},{"OBJECT_NAME":"COSMOS 2251 DEB","OBJECT_ID":"1993-036BRW","EPOCH":"2026-03-05T03:53:28.438944","MEAN_MOTION":14.57002777,"ECCENTRICITY":0.00449529,"INCLINATION":74.0244,"RA_OF_ASC_NODE":327.5606,"ARG_OF_PERICENTER":66.3025,"MEAN_ANOMALY":294.2846,"EPHEMERIS_TYPE":0,"CLASSIFICATION_TYPE":"U","NORAD_CAT_ID":38064,"ELEMENT_SET_NO":999,"REV_AT_EPOCH":73065,"BSTAR":0.00093820568,"MEAN_MOTION_DOT":4.25e-5,"MEAN_MOTION_DDOT":0},{"OBJECT_NAME":"COSMOS 2251 DEB","OBJECT_ID":"1993-036BRZ","EPOCH":"2026-03-05T11:08:51.070272","MEAN_MOTION":14.61451796,"ECCENTRICITY":0.0072197,"INCLINATION":74.0163,"RA_OF_ASC_NODE":116.1304,"ARG_OF_PERICENTER":244.4285,"MEAN_ANOMALY":176.502,"EPHEMERIS_TYPE":0,"CLASSIFICATION_TYPE":"U","NORAD_CAT_ID":38067,"ELEMENT_SET_NO":999,"REV_AT_EPOCH":63764,"BSTAR":0.00039585,"MEAN_MOTION_DOT":2.003e-5,"MEAN_MOTION_DDOT":0},{"OBJECT_NAME":"COSMOS 2251 DEB","OBJECT_ID":"1993-036BSA","EPOCH":"2026-03-03T16:13:41.255616","MEAN_MOTION":14.36145559,"ECCENTRICITY":0.00269133,"INCLINATION":74.0223,"RA_OF_ASC_NODE":159.5074,"ARG_OF_PERICENTER":233.2947,"MEAN_ANOMALY":126.5734,"EPHEMERIS_TYPE":0,"CLASSIFICATION_TYPE":"U","NORAD_CAT_ID":38068,"ELEMENT_SET_NO":999,"REV_AT_EPOCH":67808,"BSTAR":0.00032931384,"MEAN_MOTION_DOT":9.37e-6,"MEAN_MOTION_DDOT":0},{"OBJECT_NAME":"COSMOS 2251 DEB","OBJECT_ID":"1993-036BSM","EPOCH":"2026-03-05T18:25:12.242784","MEAN_MOTION":14.77934954,"ECCENTRICITY":0.01163021,"INCLINATION":73.9376,"RA_OF_ASC_NODE":193.5346,"ARG_OF_PERICENTER":49.2659,"MEAN_ANOMALY":311.8542,"EPHEMERIS_TYPE":0,"CLASSIFICATION_TYPE":"U","NORAD_CAT_ID":38197,"ELEMENT_SET_NO":999,"REV_AT_EPOCH":86980,"BSTAR":0.0037051809,"MEAN_MOTION_DOT":0.00029983,"MEAN_MOTION_DDOT":0},{"OBJECT_NAME":"COSMOS 2251 DEB","OBJECT_ID":"1993-036BSP","EPOCH":"2026-03-06T06:06:46.402272","MEAN_MOTION":13.64943327,"ECCENTRICITY":0.03687431,"INCLINATION":73.954,"RA_OF_ASC_NODE":284.9469,"ARG_OF_PERICENTER":195.1801,"MEAN_ANOMALY":163.8012,"EPHEMERIS_TYPE":0,"CLASSIFICATION_TYPE":"U","NORAD_CAT_ID":38199,"ELEMENT_SET_NO":999,"REV_AT_EPOCH":62161,"BSTAR":0.00057701028,"MEAN_MOTION_DOT":7.19e-6,"MEAN_MOTION_DDOT":0}]
